IRIDIUM 159             
1 43578U 18061K   23304.47048599  .00000177  00000+0  56289-4 0  9999
2 43578  86.3924  97.8164 0002048  88.9222 271.2208 14.34219504275820
IRIDIUM 180             
1 43922U 19002A   23304.53976082  .00000552  00000+0  18996-3 0  9991
2 43922  86.4014  34.6448 0002407  92.2561 267.8911 14.34219827251443
IRIDIUM 176             
1 43923U 19002B   23304.79470808  .00001931  00000+0  30248-3 0  9991
2 43923  86.6143  34.5713 0002368  92.7513 267.3976 14.72238488258091
IRIDIUM 168             
1 43924U 19002C   23304.53341278  .00000535  00000+0  18389-3 0  9993
2 43924  86.4017  34.6976 0002268  91.0666 269.0790 14.34220981251422
IRIDIUM 173             
1 43925U 19002D   23304.52072293  .00000534  00000+0  18362-3 0  9991
2 43925  86.4013  34.6311 0002200  91.8317 268.3130 14.34222297251410
IRIDIUM 169             
1 43926U 19002E   23304.59124525  .00000696  00000+0  22091-3 0  9998
2 43926  86.4223  66.2123 0001037 249.9098 110.1989 14.38605667252265
IRIDIUM 172             
1 43927U 19002F   23304.30507803  .00000489  00000+0  16740-3 0  9996
2 43927  86.4013  34.7262 0002235  91.7481 268.3971 14.34219375251389
IRIDIUM 175             
1 43928U 19002G   23304.24486676  .00001943  00000+0  30431-3 0  9993
2 43928  86.1559  20.9507 0002283  94.7758 265.3719 14.72226830258003
